CCSDS_OMM_VERS = 2.0
CREATION_DATE  = 
ORIGINATOR     = 

OBJECT_NAME    = IDEFIX & ARIANE 42P R/B
OBJECT_ID      = 2002-021B
CENTER_NAME    = EARTH
REF_FRAME      = TEME
TIME_SYSTEM    = UTC
MEAN_ELEMENT_THEORY = SGP/SGP4

EPOCH          = 2025-12-18T19:21:15.647904
MEAN_MOTION    = 14.30954616
ECCENTRICITY   = .00129094
INCLINATION    = 98.5794
RA_OF_ASC_NODE = 287.4187
ARG_OF_PERICENTER = 67.3560
MEAN_ANOMALY   = 292.8987

EPHEMERIS_TYPE = 0
CLASSIFICATION_TYPE = U
NORAD_CAT_ID   = 27422
ELEMENT_SET_NO = 999
REV_AT_EPOCH   = 23245
BSTAR          = .99083997E-4
MEAN_MOTION_DOT = .217E-5
MEAN_MOTION_DDOT = 0

CCSDS_OMM_VERS = 2.0
CREATION_DATE  = 
ORIGINATOR     = 

OBJECT_NAME    = AQUA
OBJECT_ID      = 2002-022A
CENTER_NAME    = EARTH
REF_FRAME      = TEME
TIME_SYSTEM    = UTC
MEAN_ELEMENT_THEORY = SGP/SGP4

EPOCH          = 2025-12-18T00:44:29.182848
MEAN_MOTION    = 14.61821302
ECCENTRICITY   = .00012878
INCLINATION    = 98.4043
RA_OF_ASC_NODE = 312.9961
ARG_OF_PERICENTER = 113.4651
MEAN_ANOMALY   = 320.6588

EPHEMERIS_TYPE = 0
CLASSIFICATION_TYPE = U
NORAD_CAT_ID   = 27424
ELEMENT_SET_NO = 999
REV_AT_EPOCH   = 25680
BSTAR          = .17905095E-3
MEAN_MOTION_DOT = .845E-5
MEAN_MOTION_DDOT = 0

CCSDS_OMM_VERS = 2.0
CREATION_DATE  = 
ORIGINATOR     = 

OBJECT_NAME    = CZ-4B R/B
OBJECT_ID      = 2002-024C
CENTER_NAME    = EARTH
REF_FRAME      = TEME
TIME_SYSTEM    = UTC
MEAN_ELEMENT_THEORY = SGP/SGP4

EPOCH          = 2025-12-18T17:43:05.295072
MEAN_MOTION    = 14.14529097
ECCENTRICITY   = .00492032
INCLINATION    = 98.8991
RA_OF_ASC_NODE = 41.4889
ARG_OF_PERICENTER = 252.5279
MEAN_ANOMALY   = 217.0794

EPHEMERIS_TYPE = 0
CLASSIFICATION_TYPE = U
NORAD_CAT_ID   = 27432
ELEMENT_SET_NO = 999
REV_AT_EPOCH   = 21779
BSTAR          = .46028643E-4
MEAN_MOTION_DOT = .44E-6
MEAN_MOTION_DDOT = 0

CCSDS_OMM_VERS = 2.0
CREATION_DATE  = 
ORIGINATOR     = 

OBJECT_NAME    = MIDORI II (ADEOS-II)
OBJECT_ID      = 2002-056A
CENTER_NAME    = EARTH
REF_FRAME      = TEME
TIME_SYSTEM    = UTC
MEAN_ELEMENT_THEORY = SGP/SGP4

EPOCH          = 2025-12-18T21:01:40.457280
MEAN_MOTION    = 14.29209723
ECCENTRICITY   = .00005085
INCLINATION    = 98.7645
RA_OF_ASC_NODE = 305.8649
ARG_OF_PERICENTER = 151.1808
MEAN_ANOMALY   = 208.9401

EPHEMERIS_TYPE = 0
CLASSIFICATION_TYPE = U
NORAD_CAT_ID   = 27597
ELEMENT_SET_NO = 999
REV_AT_EPOCH   = 19875
BSTAR          = .96238291E-4
MEAN_MOTION_DOT = .199E-5
MEAN_MOTION_DDOT = 0

CCSDS_OMM_VERS = 2.0
CREATION_DATE  = 
ORIGINATOR     = 

OBJECT_NAME    = H-2A R/B
OBJECT_ID      = 2002-056E
CENTER_NAME    = EARTH
REF_FRAME      = TEME
TIME_SYSTEM    = UTC
MEAN_ELEMENT_THEORY = SGP/SGP4

EPOCH          = 2025-12-18T21:23:26.327616
MEAN_MOTION    = 14.33681262
ECCENTRICITY   = .00712056
INCLINATION    = 98.3074
RA_OF_ASC_NODE = 311.4032
ARG_OF_PERICENTER = 43.0815
MEAN_ANOMALY   = 14.0359

EPHEMERIS_TYPE = 0
CLASSIFICATION_TYPE = U
NORAD_CAT_ID   = 27601
ELEMENT_SET_NO = 999
REV_AT_EPOCH   = 20253
BSTAR          = .11541766E-3
MEAN_MOTION_DOT = .288E-5
MEAN_MOTION_DDOT = 0

CCSDS_OMM_VERS = 2.0
CREATION_DATE  = 
ORIGINATOR     = 

OBJECT_NAME    = CZ-4B R/B
OBJECT_ID      = 2003-049C
CENTER_NAME    = EARTH
REF_FRAME      = TEME
TIME_SYSTEM    = UTC
MEAN_ELEMENT_THEORY = SGP/SGP4

EPOCH          = 2025-12-18T22:08:44.408544
MEAN_MOTION    = 14.54915075
ECCENTRICITY   = .00492533
INCLINATION    = 98.6790
RA_OF_ASC_NODE = 339.7203
ARG_OF_PERICENTER = 117.5440
MEAN_ANOMALY   = 243.0772

EPHEMERIS_TYPE = 0
CLASSIFICATION_TYPE = U
NORAD_CAT_ID   = 28059
ELEMENT_SET_NO = 999
REV_AT_EPOCH   = 17485
BSTAR          = .83262332E-4
MEAN_MOTION_DOT = .313E-5
MEAN_MOTION_DDOT = 0

CCSDS_OMM_VERS = 2.0
CREATION_DATE  = 
ORIGINATOR     = 

OBJECT_NAME    = CZ-2C R/B
OBJECT_ID      = 2004-012C
CENTER_NAME    = EARTH
REF_FRAME      = TEME
TIME_SYSTEM    = UTC
MEAN_ELEMENT_THEORY = SGP/SGP4

EPOCH          = 2025-12-18T21:56:22.628256
MEAN_MOTION    = 15.55966366
ECCENTRICITY   = .00164743
INCLINATION    = 97.7417
RA_OF_ASC_NODE = 46.0475
ARG_OF_PERICENTER = 246.1802
MEAN_ANOMALY   = 113.7725

EPHEMERIS_TYPE = 0
CLASSIFICATION_TYPE = U
NORAD_CAT_ID   = 28222
ELEMENT_SET_NO = 999
REV_AT_EPOCH   = 19168
BSTAR          = .44937362E-3
MEAN_MOTION_DOT = .31365E-3
MEAN_MOTION_DDOT = 0

CCSDS_OMM_VERS = 2.0
CREATION_DATE  = 
ORIGINATOR     = 

OBJECT_NAME    = SL-16 R/B
OBJECT_ID      = 2004-021B
CENTER_NAME    = EARTH
REF_FRAME      = TEME
TIME_SYSTEM    = UTC
MEAN_ELEMENT_THEORY = SGP/SGP4

EPOCH          = 2025-12-18T13:28:29.559936
MEAN_MOTION    = 14.14578914
ECCENTRICITY   = .00049819
INCLINATION    = 71.0009
RA_OF_ASC_NODE = 42.7484
ARG_OF_PERICENTER = 190.4524
MEAN_ANOMALY   = 169.6495

EPHEMERIS_TYPE = 0
CLASSIFICATION_TYPE = U
NORAD_CAT_ID   = 28353
ELEMENT_SET_NO = 999
REV_AT_EPOCH   = 11136
BSTAR          = -.4274272E-4
MEAN_MOTION_DOT = -.13E-5
MEAN_MOTION_DDOT = 0

CCSDS_OMM_VERS = 2.0
CREATION_DATE  = 
ORIGINATOR     = 

OBJECT_NAME    = CZ-4B R/B
OBJECT_ID      = 2004-035C
CENTER_NAME    = EARTH
REF_FRAME      = TEME
TIME_SYSTEM    = UTC
MEAN_ELEMENT_THEORY = SGP/SGP4

EPOCH          = 2025-12-18T15:41:45.629376
MEAN_MOTION    = 15.27464819
ECCENTRICITY   = .00315318
INCLINATION    = 97.3598
RA_OF_ASC_NODE = 22.9195
ARG_OF_PERICENTER = 255.3299
MEAN_ANOMALY   = 104.4444

EPHEMERIS_TYPE = 0
CLASSIFICATION_TYPE = U
NORAD_CAT_ID   = 28415
ELEMENT_SET_NO = 999
REV_AT_EPOCH   = 16753
BSTAR          = .24383407E-3
MEAN_MOTION_DOT = .6572E-4
MEAN_MOTION_DDOT = 0

CCSDS_OMM_VERS = 2.0
CREATION_DATE  = 
ORIGINATOR     = 

OBJECT_NAME    = CZ-2C R/B
OBJECT_ID      = 2004-046B
CENTER_NAME    = EARTH
REF_FRAME      = TEME
TIME_SYSTEM    = UTC
MEAN_ELEMENT_THEORY = SGP/SGP4

EPOCH          = 2025-12-18T18:41:34.634976
MEAN_MOTION    = 14.26943981
ECCENTRICITY   = .01402287
INCLINATION    = 98.1994
RA_OF_ASC_NODE = 267.7814
ARG_OF_PERICENTER = 34.5570
MEAN_ANOMALY   = 326.4629

EPHEMERIS_TYPE = 0
CLASSIFICATION_TYPE = U
NORAD_CAT_ID   = 28480
ELEMENT_SET_NO = 999
REV_AT_EPOCH   = 9696
BSTAR          = .76498878E-4
MEAN_MOTION_DOT = .165E-5
MEAN_MOTION_DDOT = 0

CCSDS_OMM_VERS = 2.0
CREATION_DATE  = 
ORIGINATOR     = 

OBJECT_NAME    = ARIANE 5 R/B
OBJECT_ID      = 2004-049H
CENTER_NAME    = EARTH
REF_FRAME      = TEME
TIME_SYSTEM    = UTC
MEAN_ELEMENT_THEORY = SGP/SGP4

EPOCH          = 2025-12-18T22:03:13.835232
MEAN_MOTION    = 14.85026841
ECCENTRICITY   = .00833211
INCLINATION    = 98.2524
RA_OF_ASC_NODE = 153.4219
ARG_OF_PERICENTER = 252.6223
MEAN_ANOMALY   = 106.5866

EPHEMERIS_TYPE = 0
CLASSIFICATION_TYPE = U
NORAD_CAT_ID   = 28499
ELEMENT_SET_NO = 999
REV_AT_EPOCH   = 13380
BSTAR          = .1091865E-3
MEAN_MOTION_DOT = .925E-5
MEAN_MOTION_DDOT = 0

CCSDS_OMM_VERS = 2.0
CREATION_DATE  = 
ORIGINATOR     = 

OBJECT_NAME    = CZ-2D R/B
OBJECT_ID      = 2005-024B
CENTER_NAME    = EARTH
REF_FRAME      = TEME
TIME_SYSTEM    = UTC
MEAN_ELEMENT_THEORY = SGP/SGP4

EPOCH          = 2025-12-18T23:17:33.622656
MEAN_MOTION    = 15.53537052
ECCENTRICITY   = .00044892
INCLINATION    = 97.3623
RA_OF_ASC_NODE = 0.5826
ARG_OF_PERICENTER = 342.9769
MEAN_ANOMALY   = 17.1333

EPHEMERIS_TYPE = 0
CLASSIFICATION_TYPE = U
NORAD_CAT_ID   = 28738
ELEMENT_SET_NO = 999
REV_AT_EPOCH   = 12722
BSTAR          = .37794283E-3
MEAN_MOTION_DOT = .23973E-3
MEAN_MOTION_DDOT = 0

