IDEFIX & ARIANE 42P R/B 
1 27422U 02021B   25352.80643111  .00000217  00000+0  99084-4 0  9996
2 27422  98.5794 287.4187 0012909  67.3560 292.8987 14.30954616232456
AQUA                    
1 27424U 02022A   25352.03089332  .00000845  00000+0  17905-3 0  9991
2 27424  98.4043 312.9961 0001287 113.4651 320.6588 14.61821302256800
CZ-4B R/B               
1 27432U 02024C   25352.73825573  .00000044  00000+0  46029-4 0  9995
2 27432  98.8991  41.4889 0049203 252.5279 217.0794 14.14529097217796
MIDORI II (ADEOS-II)    
1 27597U 02056A   25352.87616270  .00000199  00000+0  96238-4 0  9997
2 27597  98.7645 305.8649 0000508 151.1808 208.9401 14.29209723198756
H-2A R/B                
1 27601U 02056E   25352.89127694  .00000288  00000+0  11542-3 0  9995
2 27601  98.3074 311.4032 0071205  43.0815  14.0359 14.33681262202539
CZ-4B R/B               
1 28059U 03049C   25352.92273621  .00000313  00000+0  83262-4 0  9990
2 28059  98.6790 339.7203 0049253 117.5440 243.0772 14.54915075174858
CZ-2C R/B               
1 28222U 04012C   25352.91415079  .00031365  00000+0  44937-3 0  9993
2 28222  97.7417  46.0475 0016474 246.1802 113.7725 15.55966366191687
SL-16 R/B               
1 28353U 04021B   25352.56145324 -.00000130  00000+0 -42743-4 0  9994
2 28353  71.0009  42.7484 0004981 190.4524 169.6495 14.14578914111362
CZ-4B R/B               
1 28415U 04035C   25352.65400034  .00006572  00000+0  24383-3 0  9993
2 28415  97.3598  22.9195 0031531 255.3299 104.4444 15.27464819167539
CZ-2C R/B               
1 28480U 04046B   25352.77887309  .00000165  00000+0  76499-4 0  9992
2 28480  98.1994 267.7814 0140228  34.5570 326.4629 14.26943981 96969
ARIANE 5 R/B            
1 28499U 04049H   25352.91891013  .00000925  00000+0  10919-3 0  9996
2 28499  98.2524 153.4219 0083321 252.6223 106.5866 14.85026841133804
CZ-2D R/B               
1 28738U 05024B   25352.97052804  .00023973  00000+0  37794-3 0  9997
2 28738  97.3623   0.5826 0004489 342.9769  17.1333 15.53537052127224
